{
  "norad_id": 65348,
  "name": "STARLINK-34859",
  "history": [
    {
      "epoch": "2026-03-28T08:44:41.015040",
      "apogee_km": 476.0930702511978,
      "perigee_km": 474.3535503372377,
      "latitude_deg": 9.12214472681125,
      "longitude_deg": 29.77890559984371,
      "semi_major_axis_km": 6853.360310294217,
      "eccentricity": 0.00012691,
      "inclination_deg": 53.1597,
      "raan_deg": 120.165,
      "arg_perigee_deg": 58.2657,
      "mean_anomaly_deg": 301.8468,
      "mean_motion_rev_day": 15.3019724
    }
  ]
}