{"fetched_at":"2026-03-29T02:12:04Z","count":15717,"tles":[{"name":"STARLINK-34859","line1":"1 65348U 25189AB  26087.36436360  .00027004  00000+0  92063-3 0  9990","line2":"2 65348  53.1597 120.1650 0001269  58.2657 301.8468 15.30197240 33967","category":"Starlink"}]}